[{"OBJECT_NAME":"HJ-2B","OBJECT_ID":"2020-067B","EPOCH":"2026-03-09T22:09:41.128416","MEAN_MOTION":14.76549657,"ECCENTRICITY":0.00019178,"INCLINATION":97.8932,"RA_OF_ASC_NODE":150.5691,"ARG_OF_PERICENTER":89.2777,"MEAN_ANOMALY":270.8653,"EPHEMERIS_TYPE":0,"CLASSIFICATION_TYPE":"U","NORAD_CAT_ID":46479,"ELEMENT_SET_NO":999,"REV_AT_EPOCH":29361,"BSTAR":0.00020264745,"MEAN_MOTION_DOT":1.363e-5,"MEAN_MOTION_DDOT":0},{"OBJECT_NAME":"KUIPER-00181","OBJECT_ID":"2025-301E","EPOCH":"2026-03-09T10:43:15.830400","MEAN_MOTION":14.76425199,"ECCENTRICITY":0.0001938,"INCLINATION":51.9027,"RA_OF_ASC_NODE":78.1683,"ARG_OF_PERICENTER":92.8246,"MEAN_ANOMALY":267.2937,"EPHEMERIS_TYPE":0,"CLASSIFICATION_TYPE":"U","NORAD_CAT_ID":67137,"ELEMENT_SET_NO":999,"REV_AT_EPOCH":1369,"BSTAR":0.00049021368,"MEAN_MOTION_DOT":3.227e-5,"MEAN_MOTION_DDOT":0}]
